PROBA-1                 
1 26958U 01049B   22082.49452906  .00001043  00000+0  93884-4 0  9990
2 26958  97.8107  42.4877 0070447 270.8778  88.4364 14.96073355111624
BIRD 2                  
1 26959U 01049C   22082.20228086  .00008903  00000+0  21173-3 0  9993
2 26959  97.7629 168.3311 0006163 329.5621  30.5267 15.41890079439889
CUTE-1 (CO-55)          
1 27844U 03031E   22082.46844483  .00000168  00000+0  95049-4 0  9992
2 27844  98.6818  91.4444 0009705 358.1738   1.9403 14.22398440971640
CUBESAT XI-IV (CO-57)   
1 27848U 03031J   22082.47523500  .00000135  00000+0  80816-4 0  9991
2 27848  98.6865  91.9867 0009876  12.1455 347.9959 14.21962734971463
GENESIS 1               
1 29252U 06029A   22082.48684524  .00003511  00000+0  16527-3 0  9995
2 29252  64.5240 353.2355 0059754 275.4236  84.0074 15.19837911865904
FALCONSAT-3             
1 30776U 07006E   22082.48462861  .00022477  00000+0  43076-3 0  9993
2 30776  35.4328 100.8225 0003006 257.4287 102.6107 15.47093169836236
GENESIS 2               
1 31789U 07028A   22082.30073322  .00003777  00000+0  18738-3 0  9992
2 31789  64.4985  36.8088 0038471 328.6464  31.2365 15.18761073812814
APRIZESAT 4             
1 35684U 09041D   22082.48347424  .00000349  00000+0  53727-4 0  9993
2 35684  98.3155  93.1735 0045615 267.3789  92.2199 14.79524328682351
APRIZESAT 3             
1 35686U 09041F   22082.48338677  .00000687  00000+0  78256-4 0  9994
2 35686  98.1085 167.2734 0073702 107.0482 253.8825 14.87737795685822
PROBA-2                 
1 36037U 09059B   22082.50227644  .00000092  00000+0  32994-4 0  9997
2 36037  98.2236 270.7210 0013681  19.1988 340.9721 14.53208808656771
APRIZESAT 5             
1 37792U 11044E   22082.59408045  .00000335  00000+0  56276-4 0  9997
2 37792  98.3391 315.4361 0056655 278.1010  81.3774 14.75639215570333
APRIZESAT 6             
1 37793U 11044F   22082.50118163  .00000268  00000+0  50229-4 0  9995
2 37793  98.4116 291.6218 0046091 328.4898  90.8808 14.72678044569210
TET-1                   
1 38710U 12039D   22082.49690117  .00028560  00000+0  32152-3 0  9991
2 38710  97.5165 157.2906 0001082  53.9415 306.1942 15.62536207543950
PROBA-V                 
1 39159U 13021A   22082.37320152 -.00000001  00000+0  17792-4 0  9992
2 39159  98.3695 122.5661 0003941 359.9268   0.1910 14.23021740461085
STPSAT-3                
1 39380U 13064A   22082.57665784  .00006545  00000+0  15696-3 0  9998
2 39380  40.4975 194.9495 0004101  42.7118 317.4016 15.41653902466031
APRIZESAT 7             
1 39416U 13066A   22082.47082783  .00000605  00000+0  77395-4 0  9997
2 39416  97.5655  66.9491 0039374 281.9111  77.7690 14.84284969451287
APRIZESAT 8             
1 39425U 13066K   22082.47406479  .00000566  00000+0  77325-4 0  9998
2 39425  97.6178  58.0677 0050728 323.7807  35.9975 14.81463071450235
BUGSAT-1 (TITA)         
1 40014U 14033E   22082.54938509  .00002099  00000+0  18998-3 0  9994
2 40014  98.1405  77.4895 0029951 324.5964  35.3258 14.96277623423290
SAUDISAT 4              
1 40016U 14033G   22082.51459438  .00000236  00000+0  41141-4 0  9990
2 40016  97.6465 282.0636 0049450  61.0088 299.6065 14.75471593417726
APRIZESAT 9             
1 40018U 14033J   22082.44583454  .00000355  00000+0  64394-4 0  9997
2 40018  97.7084 257.6976 0072341 129.0419 231.7257 14.70171941416019
APRIZESAT 10            
1 40019U 14033K   22082.43164324  .00000379  00000+0  72024-4 0  9993
2 40019  97.7572 247.1714 0084382 170.0164 190.2743 14.67215311415189
TDS 1                   
1 40076U 14037H   22082.55905530  .00001280  00000+0  15622-3 0  9997
2 40076  98.4049 310.7915 0006896 358.8437   1.2759 14.85250713416951
TIANTUO 2               
1 40144U 14053B   22082.53664178  .00003847  00000+0  10866-3 0  9995
2 40144  97.1981 164.2168 0012290 143.4767 341.8100 15.36885929421891
TECHNOSAT               
1 42829U 17042E   22082.49234432  .00000935  00000+0  98276-4 0  9996
2 42829  97.4327 301.6007 0012752 298.2390  61.7542 14.91601548255271
FLYING LAPTOP           
1 42831U 17042G   22082.46583061  .00000013  00000+0  64398-5 0  9997
2 42831  97.4338 301.8748 0012547 298.9277  61.0684 14.91572724255276
HAWK-A                  
1 43765U 18099H   22082.51118179  .00000757  00000+0  71158-4 0  9993
2 43765  97.6274 152.6706 0014496 195.2805 164.7981 14.96704209180280
HAWK-B                  
1 43794U 18099AN  22082.17727716  .00000762  00000+0  71573-4 0  9997
2 43794  97.6275 152.3450 0014566 196.6229 163.4517 14.96705240180220
HAWK-C                  
1 43799U 18099AT  22082.44450085  .00000500  00000+0  48745-4 0  9999
2 43799  97.6272 152.5169 0014450 195.3253 164.7533 14.96703448181014
SALSAT                  
1 46495U 20068K   22082.42077284  .00001343  00000+0  10147-3 0  9998
2 46495  97.7231  23.7681 0015781 202.3876 157.6662 15.04028755 81252
